STARLINK-30315          
1 57708U 23129L   26068.56156565  .00098995  00000+0  35796-2 0  9996
2 57708  43.0003 118.5703 0001410 274.4089  85.6601 15.27390045140663
2025-313BD              
1 67299U 25313BD  26068.62968741  .00081010  00000+0  27634-2 0  9995
2 67299  97.3970 145.2850 0007287 333.4514  26.6352 15.30002360 10838
